start=new Date('2022-05-25T00:00:00.000Z').valueOf();
sats=[{"MEAN_MOTION_DOT":"-0.00003966","ARG_OF_PERICENTER":"67.5061","FILE":"3462783","REF_FRAME":"TEME","REV_AT_EPOCH":"10027","ECCENTRICITY":"0.00014650","MEAN_MOTION_DDOT":"0.0000000000000","PERIAPSIS":"546.290","EPHEMERIS_TYPE":"0","OBJECT_ID":"2020-055AN","EPOCH":"2022-05-24T16:23:19.656960","SEMIMAJOR_AXIS":"6925.439","CENTER_NAME":"EARTH","MEAN_ANOMALY":"292.6083","TIME_SYSTEM":"UTC","BSTAR":"-0.00024768000000","COUNTRY_CODE":"US","SITE":"AFETR","ELEMENT_SET_NO":"999","OBJECT_NAME":"STARLINK-1577","DECAY_DATE":null,"INCLINATION":"53.0537","RCS_SIZE":"LARGE","PERIOD":"95.594","MEAN_ELEMENT_THEORY":"SGP4","CLASSIFICATION_TYPE":"U","APOAPSIS":"548.319","NORAD_CAT_ID":"46063","RA_OF_ASC_NODE":"214.1657","GP_ID":"204451806","TLE_LINE1":"1 46063U 20055AN  22144.68286640 -.00003966  00000-0 -24768-3 0  9990","MEAN_MOTION":"15.06370439","OBJECT_TYPE":"PAYLOAD","LAUNCH_DATE":"2020-08-07","TLE_LINE2":"2 46063  53.0537 214.1657 0001465  67.5061 292.6083 15.06370439100279"},{"TLE_LINE2":"2 46064  53.0535 214.6079 0001898  55.7035 304.4133 15.06398245100263","LAUNCH_DATE":"2020-08-07","OBJECT_TYPE":"PAYLOAD","TLE_LINE1":"1 46064U 20055AP  22144.58332796  .00001568  00000-0  12416-3 0  9995","MEAN_MOTION":"15.06398245","GP_ID":"204452056","RA_OF_ASC_NODE":"214.6079","CLASSIFICATION_TYPE":"U","NORAD_CAT_ID":"46064","APOAPSIS":"548.533","OBJECT_NAME":"STARLINK-1583","ELEMENT_SET_NO":"999","MEAN_ELEMENT_THEORY":"SGP4","PERIOD":"95.592","RCS_SIZE":"LARGE","INCLINATION":"53.0535","DECAY_DATE":null,"SITE":"AFETR","COUNTRY_CODE":"US","MEAN_ANOMALY":"304.4133","CENTER_NAME":"EARTH","SEMIMAJOR_AXIS":"6925.354","BSTAR":"0.00012416000000","TIME_SYSTEM":"UTC","MEAN_MOTION_DDOT":"0.0000000000000","ECCENTRICITY":"0.00018980","REV_AT_EPOCH":"10026","OBJECT_ID":"2020-055AP","EPOCH":"2022-05-24T13:59:59.535744","EPHEMERIS_TYPE":"0","PERIAPSIS":"545.905","FILE":"3462783","MEAN_MOTION_DOT":"0.00001568","ARG_OF_PERICENTER":"55.7035","REF_FRAME":"TEME"},{"TIME_SYSTEM":"UTC","BSTAR":"0.00000449400000","SEMIMAJOR_AXIS":"6925.355","MEAN_ANOMALY":"298.1952","CENTER_NAME":"EARTH","COUNTRY_CODE":"US","SITE":"AFETR","REF_FRAME":"TEME","ARG_OF_PERICENTER":"61.9194","MEAN_MOTION_DOT":"-0.00000215","FILE":"3462176","PERIAPSIS":"546.141","OBJECT_ID":"2020-055AQ","EPOCH":"2022-05-24T10:39:35.556192","EPHEMERIS_TYPE":"0","REV_AT_EPOCH":"10050","MEAN_MOTION_DDOT":"0.0000000000000","ECCENTRICITY":"0.00015590","GP_ID":"204414945","RA_OF_ASC_NODE":"195.2263","TLE_LINE1":"1 46065U 20055AQ  22144.44416153 -.00000215  00000-0  44940-5 0  9999","MEAN_MOTION":"15.06397837","OBJECT_TYPE":"PAYLOAD","LAUNCH_DATE":"2020-08-07","TLE_LINE2":"2 46065  53.0555 195.2263 0001559  61.9194 298.1952 15.06397837100505","DECAY_DATE":null,"INCLINATION":"53.0555","MEAN_ELEMENT_THEORY":"SGP4","PERIOD":"95.592","RCS_SIZE":"LARGE","ELEMENT_SET_NO":"999","OBJECT_NAME":"STARLINK-1515","APOAPSIS":"548.300","NORAD_CAT_ID":"46065","CLASSIFICATION_TYPE":"U"},{"ECCENTRICITY":"0.00018870","MEAN_MOTION_DDOT":"0.0000000000000","REV_AT_EPOCH":"10052","EPHEMERIS_TYPE":"0","EPOCH":"2022-05-24T12:21:48.858912","OBJECT_ID":"2020-055AR","PERIAPSIS":"546.019","FILE":"3462176","MEAN_MOTION_DOT":"0.00009941","ARG_OF_PERICENTER":"55.0439","REF_FRAME":"TEME","SITE":"AFETR","COUNTRY_CODE":"US","CENTER_NAME":"EARTH","MEAN_ANOMALY":"305.0727","SEMIMAJOR_AXIS":"6925.461","BSTAR":"0.00068597000000","TIME_SYSTEM":"UTC","CLASSIFICATION_TYPE":"U","NORAD_CAT_ID":"46066","APOAPSIS":"548.633","OBJECT_NAME":"STARLINK-1525","ELEMENT_SET_NO":"999","RCS_SIZE":"LARGE","PERIOD":"95.594","MEAN_ELEMENT_THEORY":"SGP4","INCLINATION":"53.0550","DECAY_DATE":null,"TLE_LINE2":"2 46066  53.0550 194.9173 0001887  55.0439 305.0727 15.06363270100521","LAUNCH_DATE":"2020-08-07","OBJECT_TYPE":"PAYLOAD","MEAN_MOTION":"15.06363270","TLE_LINE1":"1 46066U 20055AR  22144.51514883  .00009941  00000-0  68597-3 0  9993","RA_OF_ASC_NODE":"194.9173","GP_ID":"204415195"},{"LAUNCH_DATE":"2020-08-07","OBJECT_TYPE":"PAYLOAD","TLE_LINE2":"2 46067  53.0544 193.6978 0001285  59.3497 300.7619 15.06891453100573","RA_OF_ASC_NODE":"193.6978","GP_ID":"204452306","MEAN_MOTION":"15.06891453","TLE_LINE1":"1 46067U 20055AS  22144.78356409  .00055563  00000-0  36708-2 0  9990","CLASSIFICATION_TYPE":"U","APOAPSIS":"546.597","NORAD_CAT_ID":"46067","ELEMENT_SET_NO":"999","OBJECT_NAME":"STARLINK-1529","DECAY_DATE":null,"INCLINATION":"53.0544","RCS_SIZE":"LARGE","PERIOD":"95.561","MEAN_ELEMENT_THEORY":"SGP4","COUNTRY_CODE":"US","SITE":"AFETR","SEMIMAJOR_AXIS":"6923.843","CENTER_NAME":"EARTH","MEAN_ANOMALY":"300.7619","TIME_SYSTEM":"UTC","BSTAR":"0.00367080000000","REV_AT_EPOCH":"10057","ECCENTRICITY":"0.00012850","MEAN_MOTION_DDOT":"0.0000000000000","PERIAPSIS":"544.818","EPHEMERIS_TYPE":"0","OBJECT_ID":"2020-055AS","EPOCH":"2022-05-24T18:48:19.937376","ARG_OF_PERICENTER":"59.3497","MEAN_MOTION_DOT":"0.00055563","FILE":"3462783","REF_FRAME":"TEME"},{"LAUNCH_DATE":"2020-08-07","OBJECT_TYPE":"PAYLOAD","TLE_LINE2":"2 46068  53.0550 194.8424 0001895  49.5692 310.5462 15.06385889100537","GP_ID":"204416187","RA_OF_ASC_NODE":"194.8424","TLE_LINE1":"1 46068U 20055AT  22144.52989963 -.00000880  00000-0 -40213-4 0  9992","MEAN_MOTION":"15.06385889","CLASSIFICATION_TYPE":"U","APOAPSIS":"548.569","NORAD_CAT_ID":"46068","ELEMENT_SET_NO":"999","OBJECT_NAME":"STARLINK-1532","DECAY_DATE":null,"INCLINATION":"53.0550","MEAN_ELEMENT_THEORY":"SGP4","PERIOD":"95.593","RCS_SIZE":"LARGE","COUNTRY_CODE":"US","SITE":"AFETR","SEMIMAJOR_AXIS":"6925.392","MEAN_ANOMALY":"310.5462","CENTER_NAME":"EARTH","TIME_SYSTEM":"UTC","BSTAR":"-0.00004021300000","REV_AT_EPOCH":"10053","MEAN_MOTION_DDOT":"0.0000000000000","ECCENTRICITY":"0.00018950","PERIAPSIS":"545.944","OBJECT_ID":"2020-055AT","EPOCH":"2022-05-24T12:43:03.328032","EPHEMERIS_TYPE":"0","MEAN_MOTION_DOT":"-0.00000880","ARG_OF_PERICENTER":"49.5692","FILE":"3462176","REF_FRAME":"TEME"},{"RCS_SIZE":"LARGE","MEAN_ELEMENT_THEORY":"SGP4","PERIOD":"95.591","DECAY_DATE":null,"INCLINATION":"53.0545","OBJECT_NAME":"STARLINK-1533","ELEMENT_SET_NO":"999","NORAD_CAT_ID":"46069","APOAPSIS":"548.115","CLASSIFICATION_TYPE":"U","TLE_LINE1":"1 46069U 20055AU  22144.61096453 -.00003101  00000-0 -18933-3 0  9998","MEAN_MOTION":"15.06413557","RA_OF_ASC_NODE":"194.4764","GP_ID":"204453308","TLE_LINE2":"2 46069  53.0545 194.4764 0001362  76.5231 283.5909 15.06413557100554","LAUNCH_DATE":"2020-08-07","OBJECT_TYPE":"PAYLOAD","REF_FRAME":"TEME","FILE":"3462783","ARG_OF_PERICENTER":"76.5231","MEAN_MOTION_DOT":"-0.00003101","EPHEMERIS_TYPE":"0","EPOCH":"2022-05-24T14:39:47.335392","OBJECT_ID":"2020-055AU","PERIAPSIS":"546.229","ECCENTRICITY":"0.00013620","MEAN_MOTION_DDOT":"0.0000000000000","REV_AT_EPOCH":"10055","BSTAR":"-0.00018933000000","TIME_SYSTEM":"UTC","CENTER_NAME":"EARTH","MEAN_ANOMALY":"283.5909","SEMIMAJOR_AXIS":"6925.307","SITE":"AFETR","COUNTRY_CODE":"US"},{"COUNTRY_CODE":"US","SITE":"AFETR","TIME_SYSTEM":"UTC","BSTAR":"0.00010105000000","SEMIMAJOR_AXIS":"6925.353","CENTER_NAME":"EARTH","MEAN_ANOMALY":"293.0627","PERIAPSIS":"546.041","EPHEMERIS_TYPE":"0","OBJECT_ID":"2020-055AV","EPOCH":"2022-05-24T10:14:25.168416","REV_AT_EPOCH":"10052","ECCENTRICITY":"0.00017000","MEAN_MOTION_DDOT":"0.0000000000000","REF_FRAME":"TEME","ARG_OF_PERICENTER":"67.0542","MEAN_MOTION_DOT":"0.00001224","FILE":"3462176","LAUNCH_DATE":"2020-08-07","OBJECT_TYPE":"PAYLOAD","TLE_LINE2":"2 46070  53.0561 195.3077 0001700  67.0542 293.0627 15.06398611100520","RA_OF_ASC_NODE":"195.3077","GP_ID":"204414695","MEAN_MOTION":"15.06398611","TLE_LINE1":"1 46070U 20055AV  22144.42668019  .00001224  00000-0  10105-3 0  9997","APOAPSIS":"548.395","NORAD_CAT_ID":"46070","CLASSIFICATION_TYPE":"U","INCLINATION":"53.0561","DECAY_DATE":null,"RCS_SIZE":"LARGE","PERIOD":"95.592","MEAN_ELEMENT_THEORY":"SGP4","ELEMENT_SET_NO":"999","OBJECT_NAME":"STARLINK-1536"},{"DECAY_DATE":null,"INCLINATION":"53.0544","RCS_SIZE":"LARGE","PERIOD":"95.593","MEAN_ELEMENT_THEORY":"SGP4","ELEMENT_SET_NO":"999","OBJECT_NAME":"STARLINK-1538","APOAPSIS":"548.412","NORAD_CAT_ID":"46071","CLASSIFICATION_TYPE":"U","RA_OF_ASC_NODE":"194.6119","GP_ID":"204451807","TLE_LINE1":"1 46071U 20055AW  22144.57780956 -.00001584  00000-0 -87458-4 0  9996","MEAN_MOTION":"15.06393000","OBJECT_TYPE":"PAYLOAD","LAUNCH_DATE":"2020-08-07","TLE_LINE2":"2 46071  53.0544 194.6119 0001700  60.9660 299.1499 15.06393000100547","REF_FRAME":"TEME","MEAN_MOTION_DOT":"-0.00001584","ARG_OF_PERICENTER":"60.9660","FILE":"3462783","PERIAPSIS":"546.058","EPHEMERIS_TYPE":"0","EPOCH":"2022-05-24T13:52:02.745984","OBJECT_ID":"2020-055AW","REV_AT_EPOCH":"10054","ECCENTRICITY":"0.00017000","MEAN_MOTION_DDOT":"0.0000000000000","TIME_SYSTEM":"UTC","BSTAR":"-0.00008745800000","SEMIMAJOR_AXIS":"6925.370","CENTER_NAME":"EARTH","MEAN_ANOMALY":"299.1499","COUNTRY_CODE":"US","SITE":"AFETR"},{"REF_FRAME":"TEME","FILE":"3462364","MEAN_MOTION_DOT":"0.00000073","ARG_OF_PERICENTER":"42.2562","OBJECT_ID":"2020-055AX","EPOCH":"2022-05-24T09:41:12.888096","EPHEMERIS_TYPE":"0","PERIAPSIS":"545.748","MEAN_MOTION_DDOT":"0.0000000000000","ECCENTRICITY":"0.00021190","REV_AT_EPOCH":"9997","BSTAR":"0.00002379100000","TIME_SYSTEM":"UTC","MEAN_ANOMALY":"317.8589","CENTER_NAME":"EARTH","SEMIMAJOR_AXIS":"6925.351","SITE":"AFETR","COUNTRY_CODE":"US","MEAN_ELEMENT_THEORY":"SGP4","PERIOD":"95.592","RCS_SIZE":"LARGE","INCLINATION":"53.0539","DECAY_DATE":null,"OBJECT_NAME":"STARLINK-1539","ELEMENT_SET_NO":"999","NORAD_CAT_ID":"46072","APOAPSIS":"548.683","CLASSIFICATION_TYPE":"U","TLE_LINE1":"1 46072U 20055AX  22144.40362139  .00000073  00000-0  23791-4 0  9998","MEAN_MOTION":"15.06399249","GP_ID":"204424659","RA_OF_ASC_NODE":"195.4194","TLE_LINE2":"2 46072  53.0539 195.4194 0002119  42.2562 317.8589 15.06399249 99976","OBJECT_TYPE":"PAYLOAD","LAUNCH_DATE":"2020-08-07"}];
